CUTE-1 (CO-55)          
1 27844U 03031E   26001.75323293  .00000793  00000+0  36306-3 0  9994
2 27844  98.6761  12.3979 0008827 313.6396  46.4050 14.24200369167982
CUBESAT XI-IV (CO-57)   
1 27848U 03031J   26001.51861992  .00000616  00000+0  28997-3 0  9996
2 27848  98.6793  12.0128 0008982 333.6764  26.3957 14.23504624167665
CUBESAT XI-V            
1 28895U 05043F   26001.63118210  .00003826  00000+0  61689-3 0  9996
2 28895  98.2731 154.0485 0014557  18.1825 341.9899 14.71991838 77242
CUTE-1.7+APD II (CO-65) 
1 32785U 08021C   25351.68477250  .00005656  00000+0  38073-3 0  9996
2 32785  97.8081 324.8433 0007829 290.5969  69.4418 15.07103756957832
CANX-2                  
1 32790U 08021H   26001.46211688  .00008099  00000+0  59001-3 0  9990
2 32790  97.8460 338.3749 0008874 243.0007 117.0312 15.04001031959730
SEEDS II (CO-66)        
1 32791U 08021J   26001.51488291  .00027606  00000+0  10723-2 0  9995
2 32791  97.7445 352.3528 0004073 141.3123 218.8406 15.26034517961815
SWISSCUBE               
1 35932U 09051B   26001.68702122  .00003001  00000+0  60770-3 0  9990
2 35932  98.4145 266.6264 0007377  20.5258 339.6237 14.62029659864828
BEESAT-1                
1 35933U 09051C   26001.68171758  .00002412  00000+0  49786-3 0  9995
2 35933  98.4075 266.5940 0006087  34.8417 325.3180 14.61339443864860
ITUPSAT1                
1 35935U 09051E   26001.66533733  .00002210  00000+0  46951-3 0  9997
2 35935  98.4165 265.9374 0008420  41.5393 318.6445 14.60089511864436
TISAT 1                 
1 36799U 10035E   26001.73967840  .00034755  00000+0  14188-2 0  9993
2 36799  98.0613 294.6125 0004852  95.9721 264.2068 15.24316178842284
AEROCUBE 4.5A           
1 38767U 12048K   26001.75765920  .00084401  00000+0  13222-2 0  9994
2 38767  64.6413 251.0033 0062675 225.9344 133.6627 15.50971950346571
STRAND-1                
1 39090U 13009E   26001.79236754  .00000794  00000+0  28189-3 0  9996
2 39090  98.3827 186.1706 0008924  15.5584 344.5876 14.37026059673167
BRITE-AUSTRIA           
1 39091U 13009F   26001.73564395  .00000518  00000+0  19130-3 0  9996
2 39091  98.3893 185.3414 0010625  23.1697 336.9967 14.36450072673159
NEE-01 PEGASO           
1 39151U 13018B   26001.80496152  .00006978  00000+0  68410-3 0  9997
2 39151  98.0966 140.8480 0012873 357.7167   2.3990 14.92512072685871
POPACS 1                
1 39268U 13055D   26001.52338059  .00386713  56851-4  74919-3 0  9996
2 39268  80.9479 185.4291 0087408 333.3864  26.2929 15.93439712646712
POPACS 2                
1 39269U 13055E   26001.25088311  .00038965  00000+0  70200-3 0  9992
2 39269  80.9939 334.4461 0443554   8.1804 352.6328 14.84417718638382
POPACS 3                
1 39270U 13055F   25365.85211646  .00015880  00000+0  39151-3 0  9992
2 39270  81.0035  50.1302 0565962 218.2670 137.7074 14.52301443614232
ZACUBE-1 (TSHEPISOSAT)  
1 39417U 13066B   25364.54616869  .00009097  00000+0  73614-3 0  9993
2 39417  97.8052 321.1188 0042389  90.5123 270.0957 14.99273357655441
WNISAT-1                
1 39423U 13066H   26001.43321296  .00001302  00000+0  24551-3 0  9991
2 39423  97.6943 162.7004 0164835  37.5484 323.7093 14.57682652642431
TRITON-1                
1 39427U 13066M   26001.84857602  .00007800  00000+0  94870-3 0  9995
2 39427  97.8327 275.4886 0093242  56.6398 304.3696 14.80634612649465
GOMX-1                  
1 39430U 13066Q   26001.79604634  .00005374  00000+0  82063-3 0  9993
2 39430  97.6584 212.6685 0128790 251.6911 107.0249 14.68714525645485
CUBEBUG-2 (LO-74)       
1 39440U 13066AA  25351.56788106  .00003439  00000+0  33426-3 0  9992
2 39440  97.8708 295.2332 0058016 269.4523  90.0047 14.92015584649893
NEE-02 KRYSAOR          
1 39441U 13066AB  25351.76100244  .00002517  00000+0  28598-3 0  9996
2 39441  97.8738 287.5718 0066127 305.4504  54.0549 14.85627194649256
FUNCUBE-1 (AO-73)       
1 39444U 13066AE  26001.45325318  .00015624  00000+0  10453-2 0  9992
2 39444  97.8081 329.9798 0040199  51.9272 308.5570 15.06357039654535
UWE-3                   
1 39446U 13066AG  26001.83140234  .00008581  00000+0  76329-3 0  9997
2 39446  97.8505 317.1994 0051370 151.9216 208.4792 14.95311555652708
BRITE-CA1 (TORONTO)     
1 40020U 14033L   26001.35010539  .00002241  00000+0  34498-3 0  9991
2 40020  97.9499 133.6535 0080441  91.1171 269.9254 14.72274691617664
DUCHIFAT-1              
1 40021U 14033M   26001.64054122  .00069886  00000+0  16096-2 0  9991
2 40021  98.0760  40.5529 0005584 325.4871  34.6011 15.42346000629913
NANOSATC-BR1            
1 40024U 14033Q   26001.60748575  .00030213  00000+0  11966-2 0  9995
2 40024  98.0880  19.8478 0005412  57.8086 302.3674 15.25362685628530
QB50P1                  
1 40025U 14033R   26001.76915474  .00017630  00000+0  94779-3 0  9999
2 40025  98.0965   1.6418 0011269  77.2611 282.9878 15.14900669627801
QB50P2                  
1 40032U 14033Y   26001.46796728  .00013700  00000+0  79575-3 0  9994
2 40032  98.0646 348.4179 0008915  35.2870 324.8948 15.12213456627449
PERSEUS-M2              
1 40037U 14033AD  26001.82904995  .00003370  00000+0  31485-3 0  9996
2 40037  97.9776 309.2690 0012941 126.3196 233.9220 14.94795011625921
PERSEUS-M1              
1 40039U 14033AF  26001.81274381  .00003944  00000+0  36685-3 0  9990
2 40039  97.9483 303.4801 0012780 125.3884 234.8532 14.94862319625777
POLYITAN-1              
1 40042U 14033AJ  26001.55136662  .00033247  00000+0  12722-2 0  9998
2 40042  98.1063  12.7862 0008904  22.9329 337.2304 15.26467790628110
TIGRISAT                
1 40043U 14033AK  26001.65753390  .00005456  00000+0  64396-3 0  9999
2 40043  97.7566 155.8204 0048911 260.8218  98.7462 14.84250792620914
AEROCUBE 6A             
1 40045U 14033AM  26001.45479281  .00012989  00000+0  11546-2 0  9990
2 40045  97.7034 170.6061 0039734 213.1086 146.7648 14.95627919621674
AEROCUBE 6B             
1 40046U 14033AN  26001.41209130  .00014824  00000+0  12738-2 0  9995
2 40046  97.7024 170.0316 0038152 204.1216 155.8220 14.96963262621783
CANX-4                  
1 40055U 14034C   26001.61957961  .00002680  00000+0  35409-3 0  9998
2 40055  98.3347 230.6022 0012671 180.9252 179.1938 14.80853675619875
CANX-5                  
1 40056U 14034D   26001.61989824  .00002677  00000+0  35360-3 0  9994
2 40056  98.3350 230.6363 0012658 181.1993 178.9190 14.80869857610684
UKUBE-1                 
1 40074U 14037F   26001.46788522  .00015825  00000+0  97182-3 0  9991
2 40074  98.4150 347.7229 0002660  50.2419 309.9042 15.10193269623367
BRITE-PL2 (HEWELIUSZ)   
1 40119U 14049B   26001.76345800  .00004764  00000+0  45425-3 0  9998
2 40119  97.8990 112.7306 0013287 304.3511  55.6451 14.93768130616592
AEROCUBE 5C             
1 40965U 15058B   26001.55248938  .00005124  00000+0  45605-3 0  9990
2 40965  64.7691  60.5572 0135502 128.5508 232.7839 14.90340251340818
AEROCUBE 7              
1 40966U 15058C   26001.53398522  .00006555  00000+0  53550-3 0  9991
2 40966  64.7637  46.2165 0125693 128.0718 233.1815 14.94182455341045
FOX-1A (AO-85)          
1 40967U 15058D   26001.81328123  .00005647  00000+0  51106-3 0  9999
2 40967  64.7769  75.5860 0132768 122.1855 239.2214 14.89842938 88778
SINOD-D 1               
1 40968U 15058E   26001.52985795  .00007076  00000+0  58111-3 0  9993
2 40968  64.7770  60.2033 0121181 120.2063 241.1118 14.94311676 91743
SNAP-3 ALICE            
1 40970U 15058G   26001.27552892  .00061068  00000+0  16895-2 0  9999
2 40970  64.7609 309.1728 0043182 111.0426 249.5334 15.35696477 91077
LMRST-SAT               
1 40971U 15058H   26001.59300420  .00005110  00000+0  46561-3 0  9993
2 40971  64.7773  72.3019 0135186 124.1196 237.2827 14.89482801 88739
SNAP-3 EDDIE            
1 40972U 15058J   26001.83389029  .00080705  00000+0  21559-2 0  9995
2 40972  64.7527 299.0874 0045837 114.8174 245.7738 15.36549360 93287
PROPCUBE 3              
1 40973U 15058K   26001.48879399  .00005506  00000+0  46534-3 0  9998
2 40973  64.7701  52.8388 0128215 126.1480 235.1578 14.92885076 89902
BISONSAT                
1 40974U 15058L   26001.39169947  .00017298  00000+0  93530-3 0  9999
2 40974  64.7617 351.1738 0084818 120.8449 240.1053 15.11711138 90364
SNAP-3 JIMI             
1 40975U 15058M   26001.78648497  .00009439  00000+0  67526-3 0  9999
2 40975  64.7668  25.4112 0110514 123.9335 237.2349 15.00082203 89241
PROPCUBE 1 (FLORA)      
1 40976U 15058N   26001.66609697  .00006167  00000+0  57913-3 0  9990
2 40976  64.7761  90.9210 0134513 126.2726 235.0900 14.88167308 91479
SINOD-D 3               
1 40977U 15058P   26001.55406271  .00007196  00000+0  61666-3 0  9995
2 40977  64.7746  75.5899 0123010 124.8544 236.4210 14.92532000 89877
HORYU-4                 
1 41340U 16012D   26001.75375289  .00085769  00000+0  13231-2 0  9993
2 41340  30.9911 172.3630 0006096  68.2351 291.8947 15.52749596544663
RAVAN                   
1 41849U 16067B   26001.60343590  .00052797  00000+0  12872-2 0  9996
2 41849  98.0148 233.6292 0005435 224.6316 135.4491 15.40708527501930
CELTEE 1                
1 41850U 16067C   26001.51617243  .00010445  00000+0  52376-3 0  9995
2 41850  98.0869 216.7122 0002455  84.0459 276.1052 15.17549169500586
OPTICUBE 04             
1 41851U 16067D   26001.79956469  .00005127  00000+0  33062-3 0  9994
2 41851  98.0816 205.3148 0015217 324.7780  35.2440 15.08696324500077
AEROCUBE 8D             
1 41852U 16067E   26001.54511975  .00016521  00000+0  73736-3 0  9999
2 41852  98.0889 219.1299 0004016  12.0887 348.0442 15.21460078500705
AEROCUBE 8C             
1 41853U 16067F   26001.52914703  .00014926  00000+0  66281-3 0  9998
2 41853  98.0751 216.5682 0004319 284.3144  75.7610 15.21657799500694
CORVUS BC2              
1 42846U 17042X   26001.45392176  .00006919  00000+0  49186-3 0  9999
2 42846  97.3857 169.6213 0012585 328.9542  31.0940 15.04912501461979
